STARLINK-31507          
1 59401U 24064D   26067.29226240  .00002143  00000+0  87353-4 0  9992
2 59401  43.0025  63.9239 0001145 276.0701  84.0020 15.27589170108953
LIME                    
1 62648U 25009AR  26068.73906781  .00013254  00000+0  47723-3 0  9995
2 62648  97.3985 151.4831 0001635  35.9029 324.2320 15.28703313 63766
